{
    "links": {
        "self": "http://www.neowsapp.com/rest/v1/neo/3619727?api_key=iIulBulltgU6a56xZRHN4H3l9WmuAYTsLGpBGhQ2"
    },
    "id": "3619727",
    "neo_reference_id": "3619727",
    "name": "(2012 XG55)",
    "designation": "2012 XG55",
    "nasa_jpl_url": "http://ssd.jpl.nasa.gov/sbdb.cgi?sstr=3619727",
    "absolute_magnitude_h": 23.4,
    "estimated_diameter": {
        "kilometers": {
            "estimated_diameter_min": 0.0555334912,
            "estimated_diameter_max": 0.1241766613
        },
        "meters": {
            "estimated_diameter_min": 55.5334911581,
            "estimated_diameter_max": 124.1766612574
        },
        "miles": {
            "estimated_diameter_min": 0.0345069009,
            "estimated_diameter_max": 0.0771597762
        },
        "feet": {
            "estimated_diameter_min": 182.1964991311,
            "estimated_diameter_max": 407.4037573197
        }
    },
    "is_potentially_hazardous_asteroid": false,
    "close_approach_data": [
        {
            "close_approach_date": "2003-11-12",
            "close_approach_date_full": "2003-Nov-12 00:22",
            "epoch_date_close_approach": 1068596520000,
            "relative_velocity": {
                "kilometers_per_second": "10.0908521549",
                "kilometers_per_hour": "36327.0677576573",
                "miles_per_hour": "22572.2271853065"
            },
            "miss_distance": {
                "astronomical": "0.0992396472",
                "lunar": "38.6042227608",
                "kilometers": "14846039.840671464",
                "miles": "9224901.3926316432"
            },
            "orbiting_body": "Mars"
        },
        {
            "close_approach_date": "2012-12-15",
            "close_approach_date_full": "2012-Dec-15 09:25",
            "epoch_date_close_approach": 1355563500000,
            "relative_velocity": {
                "kilometers_per_second": "2.7015619245",
                "kilometers_per_hour": "9725.6229281169",
                "miles_per_hour": "6043.1238688624"
            },
            "miss_distance": {
                "astronomical": "0.2081296384",
                "lunar": "80.9624293376",
                "kilometers": "31135750.588510208",
                "miles": "19346858.2899605504"
            },
            "orbiting_body": "Earth"
        }
    ],
    "orbital_data": {
        "orbit_id": "8",
        "orbit_determination_date": "2017-04-06 08:47:46",
        "first_observation_date": "2012-12-07",
        "last_observation_date": "2013-01-15",
        "data_arc_in_days": 39,
        "observations_used": 24,
        "orbit_uncertainty": "6",
        "minimum_orbit_intersection": ".168539",
        "jupiter_tisserand_invariant": "4.132",
        "epoch_osculation": "2459000.5",
        "eccentricity": ".3271123323541207",
        "semi_major_axis": "1.704300891099751",
        "inclination": "4.292739121332401",
        "ascending_node_longitude": "244.8015217529527",
        "orbital_period": "812.6767469015476",
        "perihelion_distance": "1.146803051578905",
        "perihelion_argument": "212.5368124483038",
        "aphelion_distance": "2.261798730620598",
        "perihelion_time": "2458736.131813765717",
        "mean_anomaly": "117.1099670406489",
        "mean_motion": ".4429805594568249",
        "equinox": "J2000",
        "orbit_class": {
            "orbit_class_type": "AMO",
            "orbit_class_description": "Near-Earth asteroid orbits similar to that of 1221 Amor",
            "orbit_class_range": "1.017 AU < q (perihelion) < 1.3 AU"
        }
    },
    "is_sentry_object": false
}